{
  "links" : {
    "next" : "https://api.nasa.gov/neo/rest/v1/feed?start_date=2013-09-16&end_date=2013-09-16&detailed=true&api_key=t0TVs3DtDT2H8Oy2Zy8m2eVrNsAVKAexjcZXUckd",
    "prev" : "https://api.nasa.gov/neo/rest/v1/feed?start_date=2013-09-14&end_date=2013-09-14&detailed=true&api_key=t0TVs3DtDT2H8Oy2Zy8m2eVrNsAVKAexjcZXUckd",
    "self" : "https://api.nasa.gov/neo/rest/v1/feed?start_date=2013-09-15&end_date=2013-09-15&detailed=true&api_key=t0TVs3DtDT2H8Oy2Zy8m2eVrNsAVKAexjcZXUckd"
  },
  "element_count" : 7,
  "near_earth_objects" : {
    "2013-09-15" : [ {
      "links" : {
        "self" : "https://api.nasa.gov/neo/rest/v1/neo/3759318?api_key=t0TVs3DtDT2H8Oy2Zy8m2eVrNsAVKAexjcZXUckd"
      },
      "neo_reference_id" : "3759318",
      "name" : "(2016 RT20)",
      "nasa_jpl_url" : "http://ssd.jpl.nasa.gov/sbdb.cgi?sstr=3759318",
      "absolute_magnitude_h" : 24.4,
      "estimated_diameter" : {
        "kilometers" : {
          "estimated_diameter_min" : 0.0350392641,
          "estimated_diameter_max" : 0.0783501764
        },
        "meters" : {
          "estimated_diameter_min" : 35.0392641108,
          "estimated_diameter_max" : 78.3501764334
        },
        "miles" : {
          "estimated_diameter_min" : 0.0217723826,
          "estimated_diameter_max" : 0.0486845275
        },
        "feet" : {
          "estimated_diameter_min" : 114.9582192654,
          "estimated_diameter_max" : 257.0543928497
        }
      },
      "is_potentially_hazardous_asteroid" : false,
      "close_approach_data" : [ {
        "close_approach_date" : "2013-09-15",
        "epoch_date_close_approach" : 1379228400000,
        "relative_velocity" : {
          "kilometers_per_second" : "18.4756571987",
          "kilometers_per_hour" : "66512.3659153661",
          "miles_per_hour" : "41328.1975878007"
        },
        "miss_distance" : {
          "astronomical" : "0.0447622392",
          "lunar" : "17.4125118256",
          "kilometers" : "6696335.5",
          "miles" : "4160910"
        },
        "orbiting_body" : "Earth"
      } ],
      "orbital_data" : {
        "orbit_id" : "2",
        "orbit_determination_date" : "2017-04-06 08:23:57",
        "orbit_uncertainty" : "7",
        "minimum_orbit_intersection" : ".0263565",
        "jupiter_tisserand_invariant" : "6.898",
        "epoch_osculation" : "2458000.5",
        "eccentricity" : ".3688135363286106",
        "semi_major_axis" : ".8279864922642783",
        "inclination" : "34.14019069107666",
        "ascending_node_longitude" : "172.2994321565694",
        "orbital_period" : "275.1904158730299",
        "perihelion_distance" : ".5226138660199681",
        "perihelion_argument" : "326.8902132224968",
        "aphelion_distance" : "1.133359118508589",
        "perihelion_time" : "2458012.780276589503",
        "mean_anomaly" : "343.9351252179481",
        "mean_motion" : "1.308185093793748",
        "equinox" : "J2000"
      }
    } ]
  }
}